[{"OBJECT_NAME":"CHUANGXIN 1-02 (CX-1-02)","OBJECT_ID":"2008-056B","EPOCH":"2026-03-09T22:48:06.707232","MEAN_MOTION":14.30130448,"ECCENTRICITY":0.00153994,"INCLINATION":98.625,"RA_OF_ASC_NODE":96.1592,"ARG_OF_PERICENTER":73.2963,"MEAN_ANOMALY":286.9908,"EPHEMERIS_TYPE":0,"CLASSIFICATION_TYPE":"U","NORAD_CAT_ID":33434,"ELEMENT_SET_NO":999,"REV_AT_EPOCH":90443,"BSTAR":1.1632331e-5,"MEAN_MOTION_DOT":-1.4e-7,"MEAN_MOTION_DDOT":0},{"OBJECT_NAME":"CZ-6A DEB","OBJECT_ID":"2024-140TL","EPOCH":"2026-03-09T13:08:40.066080","MEAN_MOTION":14.28233552,"ECCENTRICITY":0.00264951,"INCLINATION":88.9853,"RA_OF_ASC_NODE":284.5072,"ARG_OF_PERICENTER":148.5613,"MEAN_ANOMALY":211.7172,"EPHEMERIS_TYPE":0,"CLASSIFICATION_TYPE":"U","NORAD_CAT_ID":61299,"ELEMENT_SET_NO":999,"REV_AT_EPOCH":7959,"BSTAR":0.0011199617,"MEAN_MOTION_DOT":2.814e-5,"MEAN_MOTION_DDOT":0}]
